IRIDIUM 39 [-]          
1 25042U 97069D   23233.81115206  .00000744  00000+0  19735-3 0  9993
2 25042  86.3950 136.0722 0019111  13.0053 347.1639 14.47317053352921
IRIDIUM 38 [-]          
1 25043U 97069E   23233.81338817  .00000565  00000+0  18469-3 0  9993
2 25043  86.4018 152.8395 0003943 110.0471 250.1151 14.36849089350633
IRIDIUM 42 [-]          
1 25077U 97077A   23233.30269910  .00000445  00000+0  14905-3 0  9998
2 25077  86.4028 158.4051 0002732  96.1262 264.0246 14.35167187345655
IRIDIUM 44 [-]          
1 25078U 97077B   23233.29452094  .00000551  00000+0  17228-3 0  9993
2 25078  86.4000 142.1453 0004026  72.3421 287.8217 14.38948299347931
IRIDIUM 45 [-]          
1 25104U 97082A   23232.92579731  .00009876  00000+0  66076-3 0  9990
2 25104  86.3819   2.6444 0182091 247.7182 110.4652 14.94164585351994
IRIDIUM 24 [-]          
1 25105U 97082B   23233.82084913  .00000655  00000+0  19882-3 0  9993
2 25105  86.3958   2.0124 0013636 110.9180 249.3481 14.40691423347629
IRIDIUM 51 [-]          
1 25262U 98018A   23233.14568385  .00018190  00000+0  10500-2 0  9992
2 25262  86.3978  13.2158 0169452 203.4080 155.9378 15.00791548346331
